{
  "norad_id": 68839,
  "name": "STARLINK-37475",
  "history": [
    {
      "epoch": "2026-05-02T10:00:03.000096Z",
      "apogee_km": 278.2485768581164,
      "perigee_km": 276.4289697816903,
      "latitude_deg": -31.578431779938718,
      "longitude_deg": -58.760560665141654,
      "height_km": 289.8821353357774,
      "semi_major_axis_km": 6655.475773319903,
      "eccentricity": 0.0001367,
      "inclination_deg": 97.2827,
      "raan_deg": 136.0669,
      "arg_perigee_deg": 87.4955,
      "mean_anomaly_deg": 124.0764,
      "mean_motion_rev_day": 15.98947122
    }
  ]
}