{"fetched_at":"2026-05-03T09:24:26Z","count":17359,"tles":[{"name":"STARLINK-37475","line1":"1 68839U 26094A   26122.41670139 -.01759896  92425-3 -37180-2 0  9992","line2":"2 68839  97.2827 136.0669 0001367  87.4955 124.0764 15.98947122  2001","category":"Starlink"}]}